{"fetched_at":"2026-07-23T17:55:45.751Z","source":"https://celestrak.org/NORAD/elements/gp.php?NAME=PLEIADES&FORMAT=JSON","constellation":"pleiades-neo","records":[{"OBJECT_NAME":"PLEIADES NEO 3","OBJECT_ID":"2021-034A","EPOCH":"2026-07-23T12:26:04.576992","CLASSIFICATION_TYPE":"U","MEAN_MOTION":14.81670344,"ECCENTRICITY":0.0001349,"INCLINATION":97.8942,"RA_OF_ASC_NODE":278.7624,"ARG_OF_PERICENTER":101.3678,"MEAN_ANOMALY":258.7687,"EPHEMERIS_TYPE":0,"NORAD_CAT_ID":48268,"ELEMENT_SET_NO":999,"REV_AT_EPOCH":28303,"BSTAR":0.00015281,"MEAN_MOTION_DOT":0.00001151,"MEAN_MOTION_DDOT":0},{"OBJECT_NAME":"PLEIADES NEO 4","OBJECT_ID":"2021-073E","EPOCH":"2026-07-23T06:45:39.661056","CLASSIFICATION_TYPE":"U","MEAN_MOTION":14.81673231,"ECCENTRICITY":0.00013776,"INCLINATION":97.8935,"RA_OF_ASC_NODE":278.5251,"ARG_OF_PERICENTER":98.6585,"MEAN_ANOMALY":261.4784,"EPHEMERIS_TYPE":0,"NORAD_CAT_ID":49070,"ELEMENT_SET_NO":999,"REV_AT_EPOCH":26671,"BSTAR":0.000056114612,"MEAN_MOTION_DOT":0.0000039,"MEAN_MOTION_DDOT":0}]}
